IRIDIUM 166             
1 43570U 18061B   24334.72816978  .00000995  00000+0  34817-3 0  9997
2 43570  86.3938 292.6089 0002031  79.6035 280.5389 14.34223890332492
IRIDIUM 158             
1 43571U 18061C   24334.83600129  .00000247  00000+0  81163-4 0  9996
2 43571  86.3940 292.5737 0002283  80.2639 279.8815 14.34217716332475
IRIDIUM 165             
1 43572U 18061D   24334.86136966  .00000616  00000+0  21300-3 0  9999
2 43572  86.3946 292.5985 0002111  87.3539 272.7898 14.34217986332500
IRIDIUM 155             
1 43573U 18061E   24335.17215872 -.00000024  00000+0 -15780-4 0  9990
2 43573  86.3937 292.3654 0002003  75.8598 284.2821 14.34217095332526
IRIDIUM 154             
1 43574U 18061F   24334.17637106  .00000037  00000+0  61131-5 0  9992
2 43574  86.3941 292.8876 0002243  88.8207 271.3246 14.34217866332423
IRIDIUM 163             
1 43575U 18061G   24334.78527114  .00000918  00000+0  32066-3 0  9998
2 43575  86.3940 292.5662 0002387  82.2619 277.8848 14.34216240332487
IRIDIUM 156             
1 43576U 18061H   24334.82965766  .00000826  00000+0  28773-3 0  9991
2 43576  86.3939 292.5541 0002141  75.6045 284.5388 14.34219043332487
IRIDIUM 164             
1 43577U 18061J   24334.32224388  .00000885  00000+0  30892-3 0  9995
2 43577  86.3941 292.7978 0001983  87.6656 272.4767 14.34223632332454
